CZ-2D R/B               
1 28738U 05024B   26110.79531902  .00038083  00000+0  40474-3 0  9998
2 28738  97.3547 127.6040 0003978 184.5657 175.5567 15.63950237146354
ALOS (DAICHI)           
1 28931U 06002A   26110.84485874  .00000757  00000+0  13479-3 0  9994
2 28931  98.1281  66.6118 0001798 108.7614 251.3787 14.69927584 79671
H-2A R/B                
1 28932U 06002B   26110.89305257  .00007977  00000+0  38996-3 0  9998
2 28932  98.2500 261.5974 0052609  98.1714 262.5490 15.17309275100836
RESURS-DK 1             
1 29228U 06021A   26110.78509385  .00001456  00000+0  88490-4 0  9995
2 29228  69.9296 128.1157 0002835 350.7325   9.3788 15.12964115 93893
CZ-4B R/B               
1 29507U 06046C   26110.62347860  .00003468  00000+0  17487-3 0  9995
2 29507  97.5512 155.4122 0034465 121.0688 239.3936 15.17306751 66409
CZ-2C R/B               
1 31114U 07010B   26110.85513199  .00000079  00000+0  54900-4 0  9996
2 31114  98.4029 222.0301 0059281 170.5153 189.7159 14.20260884985705
COSMO-SKYMED 1          
1 31598U 07023A   26110.98388692  .00001865  00000+0  16809-3 0  9997
2 31598  97.8868 302.3644 0001071  94.7458 265.3885 14.96815021 21234
COSMOS 2428             
1 31792U 07029A   26110.72851720 -.00000194  00000+0 -78446-4 0  9990
2 31792  70.9392 115.1066 0009304 231.4640 128.5648 14.12946774970038
SL-16 R/B               
1 31793U 07029B   26110.90724461  .00000163  00000+0  10923-3 0  9991
2 31793  70.9735  83.6374 0002581 269.2400 121.5832 14.14842437971340
KORONAS-FOTON           
1 33504U 09003A   26110.89267721  .00009702  00000+0  20853-3 0  9997
2 33504  82.4308 231.9612 0010203   9.4041 350.7395 15.44447425952255
CZ-2C R/B               
1 37731U 11030B   26110.89913326  .00000648  00000+0  87991-4 0  9992
2 37731  97.8611  67.3420 0051559 211.6179 215.1773 14.81346277796347
H-2A R/B                
1 38341U 12025E   26110.88598347  .00001378  00000+0  12859-3 0  9997
2 38341  98.4796  81.3393 0044244 172.7805 187.4060 14.95422420754521
SHIJIAN-16 (SJ-16)      
1 39358U 13057A   26110.99548694  .00000930  00000+0  93382-4 0  9998
2 39358  74.9697 104.9895 0016018   4.0698 356.0617 14.92465568677818
SL-4 R/B                
1 39679U 14021B   26110.35659866  .00009485  00000+0  20640-3 0  9990
2 39679  51.6051 133.7822 0092947 255.3803 103.6861 15.40554367662691
ALOS-2                  
1 39766U 14029A   26110.78651484  .00000398  00000+0  60126-4 0  9998
2 39766  97.9205 208.7721 0001810  87.7177 272.4242 14.79462426643099
YAOGAN-29               
1 41038U 15069A   26110.96392313  .00000300  00000+0  43569-4 0  9996
2 41038  98.0075 139.4948 0001449 150.2153 209.9143 14.83036554562145
ASTRO-H (HITOMI)        
1 41337U 16012A   26110.60558723  .00002068  00000+0  11759-3 0  9995
2 41337  30.9987  85.9943 0009465  32.7932 327.3293 15.10246991558571
HXMT (HUIYAN)           
1 42758U 17034A   26110.96251904  .00002926  00000+0  15153-3 0  9993
2 42758  43.0131 141.5529 0030779 144.2724 216.0192 15.17960599488965
SAOCOM 1A               
1 43641U 18076A   26110.95460644  .00000957  00000+0  12675-3 0  9992
2 43641  97.8894 298.5304 0001556  90.6743 269.4649 14.82152441407623
H-2A R/B                
1 43682U 18084L   26110.90524640  .00016344  00000+0  36903-3 0  9995
2 43682  98.8657 337.3651 0023149 234.4000 125.5087 15.43041686412281
SAOCOM 1B               
1 46265U 20059A   26110.91832013  .00000062  00000+0  14340-4 0  9999
2 46265  97.8886 297.5888 0001555  84.5381 275.6009 14.82141077305005
CSS (TIANHE)            
1 48274U 21035A   26110.92198984  .00030776  00000+0  33518-3 0  9991
2 48274  41.4677 310.7964 0006514 246.3399 113.6757 15.62720710284216
COSMOS 2550             
1 48865U 21056A   26110.57620927 -.00000201  00000+0 -27058-6 0  9995
2 48865  67.1423 274.1769 0008469 269.3687  90.6497 15.33829515269880
CZ-2C R/B               
1 52794U 22058K   26110.45236432  .00035635  00000+0  46560-3 0  9998
2 52794  50.1861 102.9413 0039701  19.5452 340.7031 15.57313469216636
CZ-2C R/B               
1 54039U 22132E   26110.92281528  .00044909  00000+0  44203-3 0  9999
2 54039  97.2941 115.6520 0013013 294.6425  65.3479 15.65762189196971
GSLV R/B                
1 54149U 22138AN  26110.83604141  .00001595  00000+0  13558-3 0  9990
2 54149  87.3824 152.2427 0021400   5.7942 354.3533 14.97006554190236
XRISM                   
1 57800U 23137A   26110.43539008  .00004019  00000+0  22311-3 0  9993
2 57800  31.0035  13.5479 0007499 100.2123 259.9361 15.11949409144110
ACS3                    
1 59588U 24077B   26110.66159517  .00009276  00000+0  72065-2 0  9990
2 59588  97.1862  42.3467 0067469 352.7738   7.2449 13.91534935100036
HTV-X1                  
1 66174U 25241A   26109.66693346  .00005975  00000+0  19778-3 0  9999
2 66174  51.6366 235.4531 0007673 331.4211  28.6349 15.32697623 27223
SZ-21 MODULE            
1 66515U 25246C   26110.85885372  .00036254  00000+0  27243-3 0  9998
2 66515  41.4737 303.1175 0004422 300.3097  59.7308 15.71815104 24703

ISS (ZARYA)             
1 25544U 98067A   26110.78039753  .00009753  00000+0  18580-3 0  9990
2 25544  51.6325 224.2241 0006701 330.9223  29.1391 15.48857372562858
POISK                   
1 36086U 09060A   26110.78039753  .00009753  00000+0  18580-3 0  9998
2 36086  51.6325 224.2241 0006701 330.9223  29.1391 15.48857372561490
CSS (TIANHE)            
1 48274U 21035A   26110.92198984  .00030776  00000+0  33518-3 0  9991
2 48274  41.4677 310.7964 0006514 246.3399 113.6757 15.62720710284216
ISS (NAUKA)             
1 49044U 21066A   26110.78039753  .00009753  00000+0  18580-3 0  9996
2 49044  51.6325 224.2241 0006701 330.9223  29.1391 15.48857372561533
FREGAT DEB              
1 49271U 11037PF  26110.89443722  .00002926  00000+0  45296-2 0  9990
2 49271  51.6411 174.0073 0943684 156.1480 208.6232 12.41011258217934
CSS (WENTIAN)           
1 53239U 22085A   26110.92198984  .00030776  00000+0  33518-3 0  9994
2 53239  41.4677 310.7964 0006514 246.3399 113.6757 15.62720710283133
CSS (MENGTIAN)          
1 54216U 22143A   26110.92198984  .00030776  00000+0  33518-3 0  9995
2 54216  41.4677 310.7964 0006514 246.3399 113.6757 15.62720710284062
TIANZHOU-9              
1 64786U 25149A   26110.92198984  .00030776  00000+0  33518-3 0  9997
2 64786  41.4677 310.7964 0006514 246.3399 113.6757 15.62720710284076
PROGRESS-MS 32          
1 65586U 25204A   26110.78039753  .00009753  00000+0  18580-3 0  9993
2 65586  51.6325 224.2241 0006701 330.9223  29.1391 15.48857372554501
BOTAN                   
1 65943U 98067XQ  26108.50080101  .04905991  12189-4  10064-2 0  9994
2 65943  51.6087 206.4857 0010568 326.5110  33.5243 16.30209286 29857
HRC MONOBLOCK CAMERA    
1 66052U 98067XR  26110.28262288  .00038853  00000+0  36474-3 0  9990
2 66052  51.6265 214.8859 0004323 309.0386  51.0225 15.66761300 28903
HTV-X1                  
1 66174U 25241A   26109.66693346  .00005975  00000+0  19778-3 0  9999
2 66174  51.6366 235.4531 0007673 331.4211  28.6349 15.32697623 27223
SZ-21 MODULE            
1 66515U 25246C   26110.85885372  .00036254  00000+0  27243-3 0  9998
2 66515  41.4737 303.1175 0004422 300.3097  59.7308 15.71815104 24703
SHENZHOU-22             
1 66645U 25272A   26110.92198984  .00030776  00000+0  33518-3 0  9990
2 66645  41.4677 310.7964 0006514 246.3399 113.6757 15.62720710284083
SOYUZ-MS 28             
1 66664U 25275A   26110.78039753  .00009753  00000+0  18580-3 0  9999
2 66664  51.6325 224.2241 0006701 330.9223  29.1391 15.48857372561776
DUPLEX                  
1 66906U 98067XS  26110.03309750  .00028265  00000+0  36371-3 0  9999
2 66906  51.6288 222.2330 0004262 316.4091  43.6565 15.58821856 21574
ISS OBJECT XT           
1 66907U 98067XT  26110.56491386  .00342383  54212-4  11379-2 0  9994
2 66907  51.6192 209.1860 0011710 337.8574  22.1924 15.89658474 21793
ISS OBJECT XU           
1 66908U 98067XU  26109.98958199  .00365310  60410-4  12072-2 0  9992
2 66908  51.6192 212.0904 0011416 333.9645  26.0785 15.89766386 21706
SILVERSAT               
1 66909U 98067XV  26110.30149977  .01400443  13415-2  13903-2 0  9990
2 66909  51.6101 207.3485 0013786 338.7955  21.2486 16.10656402 21793
ISS OBJECT XW           
1 66910U 98067XW  26110.54627720  .00262547  00000+0  10336-2 0  9995
2 66910  51.6185 209.8088 0010827 332.6022  27.4409 15.85521877 21784
ISS OBJECT XY           
1 66912U 98067XY  26110.57540914  .00114465  00000+0  81724-3 0  9994
2 66912  51.6234 213.8212 0007338 328.9976  31.0588 15.72889119 21729
KNACKSAT-2              
1 67683U 98067XZ  26110.60236937  .00033041  00000+0  48335-3 0  9992
2 67683  51.6305 223.0372 0011912 344.3877  15.6745 15.55215986 11301
CORAL                   
1 67684U 98067YA  26110.58376979  .00084244  00000+0  94894-3 0  9993
2 67684  51.6280 221.4077 0015683 336.7595  23.2688 15.61673259 11320
GXIBA-1                 
1 67685U 98067YB  26110.58254697  .00037573  00000+0  53238-3 0  9996
2 67685  51.6293 222.9046 0013828 341.2513  18.7968 15.55990878 11307
UITMSAT-2               
1 67686U 98067YC  26110.03647409  .00052292  00000+0  69974-3 0  9993
2 67686  51.6300 225.2605 0010752 319.1163  40.9021 15.57425635 11226
HMU-SAT2                
1 67687U 98067YD  26110.01358095  .00038363  00000+0  55186-3 0  9995
2 67687  51.6309 225.8604 0009988 320.5824  39.4440 15.55623505 11132
LEOPARD                 
1 67688U 98067YE  26109.60181765  .00053374  00000+0  73319-3 0  9994
2 67688  51.6313 227.6090 0010319 317.4453  42.5738 15.56718917 11071
CREW DRAGON 12          
1 67796U 26031A   26110.78039753  .00009753  00000+0  18580-3 0  9997
2 67796  51.6325 224.2241 0006701 330.9223  29.1391 15.48857372562943
PROGRESS-MS 33          
1 68319U 26058A   26110.78039753  .00009753  00000+0  18580-3 0  9998
2 68319  51.6325 224.2241 0006701 330.9223  29.1391 15.48857372  3169
